[{"OBJECT_NAME":"KINEIS-3E","OBJECT_ID":"2024-172C","EPOCH":"2026-03-09T18:10:24.014496","MEAN_MOTION":14.72309398,"ECCENTRICITY":0.0001612,"INCLINATION":98.0288,"RA_OF_ASC_NODE":159.764,"ARG_OF_PERICENTER":104.7696,"MEAN_ANOMALY":255.369,"EPHEMERIS_TYPE":0,"CLASSIFICATION_TYPE":"U","NORAD_CAT_ID":61222,"ELEMENT_SET_NO":999,"REV_AT_EPOCH":7872,"BSTAR":0.00046314644,"MEAN_MOTION_DOT":2.879e-5,"MEAN_MOTION_DDOT":0},{"OBJECT_NAME":"CZ-6A DEB","OBJECT_ID":"2022-151L","EPOCH":"2026-03-09T22:58:03.341568","MEAN_MOTION":14.43617515,"ECCENTRICITY":0.01298864,"INCLINATION":98.6257,"RA_OF_ASC_NODE":119.5331,"ARG_OF_PERICENTER":258.3246,"MEAN_ANOMALY":100.3344,"EPHEMERIS_TYPE":0,"CLASSIFICATION_TYPE":"U","NORAD_CAT_ID":54269,"ELEMENT_SET_NO":999,"REV_AT_EPOCH":17447,"BSTAR":0.00011029382,"MEAN_MOTION_DOT":3.62e-6,"MEAN_MOTION_DDOT":0}]
